XRISM                   
1 57800U 23137A   24137.50850655  .00011110  00000+0  84588-3 0  9996
2 57800  31.0021 214.2154 0009632 253.0720 106.8860 15.00853814 37843
